start=new Date('2022-07-23T00:00:00.000Z').valueOf();
sats=[{"MEAN_MOTION":"15.08877686","MEAN_ANOMALY":"121.8944","RCS_SIZE":"LARGE","BSTAR":"-0.00402900000000","COUNTRY_CODE":"US","MEAN_MOTION_DOT":"-0.00063906","CENTER_NAME":"EARTH","NORAD_CAT_ID":"52301","EPHEMERIS_TYPE":"0","MEAN_MOTION_DDOT":"0.0000000000000","TLE_LINE1":"1 52301U 22041AS  22203.91667824 -.00063906  00000-0 -40290-2 0  9995","TLE_LINE2":"2 52301  53.2147 290.7306 0001347  72.0796 121.8944 15.08877686  1307","OBJECT_TYPE":"PAYLOAD","ARG_OF_PERICENTER":"72.0796","REF_FRAME":"TEME","SEMIMAJOR_AXIS":"6917.765","INCLINATION":"53.2147","PERIOD":"95.435","OBJECT_NAME":"STARLINK-3768","LAUNCH_DATE":"2022-04-21","DECAY_DATE":null,"RA_OF_ASC_NODE":"290.7306","OBJECT_ID":"2022-041AS","REV_AT_EPOCH":"130","EPOCH":"2022-07-22T22:00:00.999936","MEAN_ELEMENT_THEORY":"SGP4","GP_ID":"208673480","ECCENTRICITY":"0.00013470","ELEMENT_SET_NO":"999","CLASSIFICATION_TYPE":"U","APOAPSIS":"540.562","FILE":"3519932","PERIAPSIS":"538.698","TIME_SYSTEM":"UTC","SITE":"AFETR"},{"INCLINATION":"53.2175","PERIOD":"93.979","SEMIMAJOR_AXIS":"6847.228","ARG_OF_PERICENTER":"39.8676","REF_FRAME":"TEME","OBJECT_TYPE":"PAYLOAD","TLE_LINE1":"1 52302U 22041AT  22203.91667824 -.01070677  00000-0 -36972-1 0  9991","TLE_LINE2":"2 52302  53.2175 281.0646 0001776  39.8676 201.3920 15.32253276 15700","MEAN_MOTION_DDOT":"0.0000000000000","EPHEMERIS_TYPE":"0","NORAD_CAT_ID":"52302","CENTER_NAME":"EARTH","MEAN_MOTION_DOT":"-0.01070677","COUNTRY_CODE":"US","BSTAR":"-0.03697200000000","RCS_SIZE":"LARGE","MEAN_ANOMALY":"201.3920","MEAN_MOTION":"15.32253276","SITE":"AFETR","TIME_SYSTEM":"UTC","PERIAPSIS":"467.877","APOAPSIS":"470.309","FILE":"3519891","CLASSIFICATION_TYPE":"U","ELEMENT_SET_NO":"999","ECCENTRICITY":"0.00017760","GP_ID":"208647537","MEAN_ELEMENT_THEORY":"SGP4","EPOCH":"2022-07-22T22:00:00.999936","REV_AT_EPOCH":"1570","RA_OF_ASC_NODE":"281.0646","OBJECT_ID":"2022-041AT","DECAY_DATE":null,"OBJECT_NAME":"STARLINK-3564","LAUNCH_DATE":"2022-04-21"},{"MEAN_ANOMALY":"218.9724","RCS_SIZE":"LARGE","MEAN_MOTION":"15.08887118","MEAN_MOTION_DDOT":"0.0000000000000","NORAD_CAT_ID":"52303","EPHEMERIS_TYPE":"0","MEAN_MOTION_DOT":"-0.00040031","CENTER_NAME":"EARTH","BSTAR":"-0.00250790000000","COUNTRY_CODE":"US","TLE_LINE2":"2 52303  53.2176 290.7307 0001429  54.9393 218.9724 15.08887118  1300","TLE_LINE1":"1 52303U 22041AU  22203.91667824 -.00040031  00000-0 -25079-2 0  9999","OBJECT_TYPE":"PAYLOAD","INCLINATION":"53.2176","PERIOD":"95.435","SEMIMAJOR_AXIS":"6917.736","ARG_OF_PERICENTER":"54.9393","REF_FRAME":"TEME","DECAY_DATE":null,"LAUNCH_DATE":"2022-04-21","OBJECT_NAME":"STARLINK-3742","MEAN_ELEMENT_THEORY":"SGP4","EPOCH":"2022-07-22T22:00:00.999936","REV_AT_EPOCH":"130","RA_OF_ASC_NODE":"290.7307","OBJECT_ID":"2022-041AU","APOAPSIS":"540.590","FILE":"3519932","GP_ID":"208672865","ECCENTRICITY":"0.00014290","ELEMENT_SET_NO":"999","CLASSIFICATION_TYPE":"U","TIME_SYSTEM":"UTC","SITE":"AFETR","PERIAPSIS":"538.613"},{"APOAPSIS":"482.042","FILE":"3519932","ECCENTRICITY":"0.00015430","GP_ID":"208672884","CLASSIFICATION_TYPE":"U","ELEMENT_SET_NO":"999","TIME_SYSTEM":"UTC","SITE":"AFETR","PERIAPSIS":"479.925","DECAY_DATE":null,"OBJECT_NAME":"STARLINK-3744","LAUNCH_DATE":"2022-04-21","MEAN_ELEMENT_THEORY":"SGP4","OBJECT_ID":"2022-041AV","RA_OF_ASC_NODE":"281.3931","REV_AT_EPOCH":"130","EPOCH":"2022-07-22T22:00:00.999936","TLE_LINE2":"2 52304  53.2174 281.3931 0001543  44.2453  26.1297 15.28270643  1309","TLE_LINE1":"1 52304U 22041AV  22203.91667824 -.01067238  00000-0 -41715-1 0  9993","OBJECT_TYPE":"PAYLOAD","SEMIMAJOR_AXIS":"6859.119","INCLINATION":"53.2174","PERIOD":"94.224","REF_FRAME":"TEME","ARG_OF_PERICENTER":"44.2453","MEAN_ANOMALY":"26.1297","RCS_SIZE":"LARGE","MEAN_MOTION":"15.28270643","NORAD_CAT_ID":"52304","EPHEMERIS_TYPE":"0","MEAN_MOTION_DDOT":"0.0000000000000","BSTAR":"-0.04171500000000","COUNTRY_CODE":"US","CENTER_NAME":"EARTH","MEAN_MOTION_DOT":"-0.01067238"},{"MEAN_MOTION_DDOT":"0.0000000000000","NORAD_CAT_ID":"52305","EPHEMERIS_TYPE":"0","CENTER_NAME":"EARTH","MEAN_MOTION_DOT":"-0.00074291","BSTAR":"-0.00469210000000","COUNTRY_CODE":"US","MEAN_ANOMALY":"245.6865","RCS_SIZE":"LARGE","MEAN_MOTION":"15.08888713","PERIOD":"95.434","INCLINATION":"53.2194","SEMIMAJOR_AXIS":"6917.731","ARG_OF_PERICENTER":"63.0603","REF_FRAME":"TEME","TLE_LINE1":"1 52305U 22041AW  22203.91667824 -.00074291  00000-0 -46921-2 0  9995","TLE_LINE2":"2 52305  53.2194 290.7302 0001411  63.0603 245.6865 15.08888713  1308","OBJECT_TYPE":"PAYLOAD","MEAN_ELEMENT_THEORY":"SGP4","REV_AT_EPOCH":"130","EPOCH":"2022-07-22T22:00:00.999936","RA_OF_ASC_NODE":"290.7302","OBJECT_ID":"2022-041AW","DECAY_DATE":null,"LAUNCH_DATE":"2022-04-21","OBJECT_NAME":"STARLINK-3724","TIME_SYSTEM":"UTC","SITE":"AFETR","PERIAPSIS":"538.620","APOAPSIS":"540.573","FILE":"3519932","GP_ID":"208673114","ECCENTRICITY":"0.00014110","CLASSIFICATION_TYPE":"U","ELEMENT_SET_NO":"999"},{"MEAN_MOTION_DDOT":"0.0000000000000","NORAD_CAT_ID":"52306","EPHEMERIS_TYPE":"0","CENTER_NAME":"EARTH","MEAN_MOTION_DOT":"-0.01069179","BSTAR":"-0.03797300000000","COUNTRY_CODE":"US","MEAN_ANOMALY":"166.3680","RCS_SIZE":"LARGE","MEAN_MOTION":"15.31355181","INCLINATION":"53.2174","PERIOD":"94.034","SEMIMAJOR_AXIS":"6849.905","ARG_OF_PERICENTER":"37.1621","REF_FRAME":"TEME","TLE_LINE2":"2 52306  53.2174 281.1837 0001903  37.1621 166.3680 15.31355181  1300","TLE_LINE1":"1 52306U 22041AX  22203.91667824 -.01069179  00000-0 -37973-1 0  9992","OBJECT_TYPE":"PAYLOAD","MEAN_ELEMENT_THEORY":"SGP4","REV_AT_EPOCH":"130","EPOCH":"2022-07-22T22:00:00.999936","OBJECT_ID":"2022-041AX","RA_OF_ASC_NODE":"281.1837","DECAY_DATE":null,"OBJECT_NAME":"STARLINK-3747","LAUNCH_DATE":"2022-04-21","TIME_SYSTEM":"UTC","SITE":"AFETR","PERIAPSIS":"470.467","APOAPSIS":"473.074","FILE":"3519932","GP_ID":"208672999","ECCENTRICITY":"0.00019030","ELEMENT_SET_NO":"999","CLASSIFICATION_TYPE":"U"},{"REF_FRAME":"TEME","ARG_OF_PERICENTER":"60.9421","SEMIMAJOR_AXIS":"6917.847","PERIOD":"95.437","INCLINATION":"53.2199","OBJECT_TYPE":"PAYLOAD","TLE_LINE2":"2 52307  53.2199 290.7292 0001620  60.9421 253.0488 15.08851086  1306","TLE_LINE1":"1 52307U 22041AY  22203.91667824 -.00025660  00000-0 -15994-2 0  9999","COUNTRY_CODE":"US","BSTAR":"-0.00159940000000","MEAN_MOTION_DOT":"-0.00025660","CENTER_NAME":"EARTH","EPHEMERIS_TYPE":"0","NORAD_CAT_ID":"52307","MEAN_MOTION_DDOT":"0.0000000000000","MEAN_MOTION":"15.08851086","RCS_SIZE":"LARGE","MEAN_ANOMALY":"253.0488","PERIAPSIS":"538.591","SITE":"AFETR","TIME_SYSTEM":"UTC","ELEMENT_SET_NO":"999","CLASSIFICATION_TYPE":"U","ECCENTRICITY":"0.00016200","GP_ID":"208673231","FILE":"3519932","APOAPSIS":"540.832","RA_OF_ASC_NODE":"290.7292","OBJECT_ID":"2022-041AY","REV_AT_EPOCH":"130","EPOCH":"2022-07-22T22:00:00.999936","MEAN_ELEMENT_THEORY":"SGP4","LAUNCH_DATE":"2022-04-21","OBJECT_NAME":"STARLINK-3755","DECAY_DATE":null},{"DECAY_DATE":null,"LAUNCH_DATE":"2022-04-21","OBJECT_NAME":"STARLINK-3745","MEAN_ELEMENT_THEORY":"SGP4","RA_OF_ASC_NODE":"281.4151","OBJECT_ID":"2022-041AZ","EPOCH":"2022-07-22T22:00:00.999936","REV_AT_EPOCH":"130","FILE":"3519932","APOAPSIS":"479.557","ECCENTRICITY":"0.00017820","GP_ID":"208673250","ELEMENT_SET_NO":"999","CLASSIFICATION_TYPE":"U","TIME_SYSTEM":"UTC","SITE":"AFETR","PERIAPSIS":"477.114","MEAN_ANOMALY":"65.1910","RCS_SIZE":"LARGE","MEAN_MOTION":"15.29156175","NORAD_CAT_ID":"52308","EPHEMERIS_TYPE":"0","MEAN_MOTION_DDOT":"0.0000000000000","BSTAR":"-0.04057400000000","COUNTRY_CODE":"US","CENTER_NAME":"EARTH","MEAN_MOTION_DOT":"-0.01066903","TLE_LINE1":"1 52308U 22041AZ  22203.91667824 -.01066903  00000-0 -40574-1 0  9997","TLE_LINE2":"2 52308  53.2174 281.4151 0001782  37.3625  65.1910 15.29156175  1306","OBJECT_TYPE":"PAYLOAD","SEMIMAJOR_AXIS":"6856.471","INCLINATION":"53.2174","PERIOD":"94.170","REF_FRAME":"TEME","ARG_OF_PERICENTER":"37.3625"},{"INCLINATION":"53.2174","PERIOD":"94.188","SEMIMAJOR_AXIS":"6857.353","ARG_OF_PERICENTER":"40.5697","REF_FRAME":"TEME","TLE_LINE1":"1 52309U 22041BA  22203.91667824 -.01066995  00000-0 -40951-1 0  9998","TLE_LINE2":"2 52309  53.2174 281.4080 0001671  40.5697  51.3954 15.28860984  1304","OBJECT_TYPE":"PAYLOAD","MEAN_MOTION_DDOT":"0.0000000000000","NORAD_CAT_ID":"52309","EPHEMERIS_TYPE":"0","CENTER_NAME":"EARTH","MEAN_MOTION_DOT":"-0.01066995","BSTAR":"-0.04095100000000","COUNTRY_CODE":"US","MEAN_ANOMALY":"51.3954","RCS_SIZE":"LARGE","MEAN_MOTION":"15.28860984","TIME_SYSTEM":"UTC","SITE":"AFETR","PERIAPSIS":"478.072","APOAPSIS":"480.364","FILE":"3519932","GP_ID":"208673481","ECCENTRICITY":"0.00016710","CLASSIFICATION_TYPE":"U","ELEMENT_SET_NO":"999","MEAN_ELEMENT_THEORY":"SGP4","EPOCH":"2022-07-22T22:00:00.999936","REV_AT_EPOCH":"130","OBJECT_ID":"2022-041BA","RA_OF_ASC_NODE":"281.4080","DECAY_DATE":null,"OBJECT_NAME":"STARLINK-3756","LAUNCH_DATE":"2022-04-21"},{"MEAN_MOTION":"15.29666565","MEAN_ANOMALY":"82.0800","RCS_SIZE":"LARGE","BSTAR":"-0.03994200000000","COUNTRY_CODE":"US","MEAN_MOTION_DOT":"-0.01067028","CENTER_NAME":"EARTH","NORAD_CAT_ID":"52310","EPHEMERIS_TYPE":"0","MEAN_MOTION_DDOT":"0.0000000000000","TLE_LINE2":"2 52310  53.2174 281.4272 0001784  38.6804  82.0800 15.29666565 15702","TLE_LINE1":"1 52310U 22041BB  22203.91667824 -.01067028  00000-0 -39942-1 0  9996","OBJECT_TYPE":"PAYLOAD","ARG_OF_PERICENTER":"38.6804","REF_FRAME":"TEME","SEMIMAJOR_AXIS":"6854.945","PERIOD":"94.138","INCLINATION":"53.2174","LAUNCH_DATE":"2022-04-21","OBJECT_NAME":"STARLINK-3688","DECAY_DATE":null,"RA_OF_ASC_NODE":"281.4272","OBJECT_ID":"2022-041BB","EPOCH":"2022-07-22T22:00:00.999936","REV_AT_EPOCH":"1570","MEAN_ELEMENT_THEORY":"SGP4","GP_ID":"208646662","ECCENTRICITY":"0.00017840","ELEMENT_SET_NO":"999","CLASSIFICATION_TYPE":"U","FILE":"3519862","APOAPSIS":"478.033","PERIAPSIS":"475.587","TIME_SYSTEM":"UTC","SITE":"AFETR"}];
